From: horizons@ssd.jpl.nasa.gov (Horizons Ephemeris System)
Subject: [Horizons] SMALL BODY #C(500@10)_T(84P/Giclas) (1/1)
Date: February 4, 2021 at 3:15:28 PM PST

Automated mail xmit by PORT_LOGIN, PID= 15228 Thu Feb  4 15:15:28 2021
++++++++++++++++++++++++++++++++ (part 1 of 1)  +++++++++++++++++++++++++++++++
*******************************************************************************
Ephemeris / PORT_LOGIN Thu Feb  4 15:15:09 2021 Pasadena, USA    / Horizons
*******************************************************************************
Target body name: 84P/Giclas                      {source: JPL#47}
Center body name: Sun (10)                        {source: DE431}
Center-site name: BODY CENTER
*******************************************************************************
Start time      : A.D. 2030-Jan-01 00:00:00.0000 TDB
Stop  time      : A.D. 2037-Jan-01 00:00:00.0000 TDB
Step-size       : 20160 minutes
*******************************************************************************
Center geodetic : 0.00000000,0.00000000,0.0000000 {E-lon(deg),Lat(deg),Alt(km)}
Center cylindric: 0.00000000,0.00000000,0.0000000 {E-lon(deg),Dxy(km),Dz(km)}
Center radii    : 696000.0 x 696000.0 x 696000.0 k{Equator, meridian, pole}    
Small perturbers: Yes                             {source: SB431-N16}
Output units    : AU-D
Output type     : GEOMETRIC cartesian states
Output format   : 3 (position, velocity, LT, range, range-rate)
Reference frame : Ecliptic of J2000.0
*******************************************************************************
Initial IAU76/J2000 heliocentric ecliptic osculating elements (au, days, deg.):
 EPOCH=  2455580.5 ! 2011-Jan-19.0000000 (TDB)    RMSW= n.a.                  
  EC= .4942446592077356   QR= 1.842097748536351   TP= 2456496.5536077959      
  OM= 112.4098898502675   W= 276.3346585697539    IN= 7.282325825880715       
 Equivalent ICRF heliocentric equatorial cartesian coordinates (au, au/d):
  X=-3.329656789398198E+00  Y=-3.773367477073469E+00  Z=-1.002218487172493E+00
 VX= 5.334729317306231E-03 VY=-1.919748295899933E-03 VZ=-1.396219774703280E-03
Comet physical (GM= km^3/s^2; RAD= km):                                        
  GM= n.a.                RAD= .900                                           
  M1=  14.6     M2=  n.a.     k1=  5.25   k2= n.a.     PHCOF= n.a.            
Comet non-gravitational force model (AMRAT=m^2/kg;A1-A3=au/d^2;DT=days;R0=au): 
  AMRAT=  0.                                      DT=  0.                     
  A1= 6.024823337793E-10  A2= -2.326360438019E-11 A3= 0.                      
Standard model:                                                               
  ALN=  .1112620426   NK=  4.6142   NM=  2.15     NN=  5.093    R0=  2.808    
*******************************************************************************
           JDTDB,            Calendar Date (TDB),                      X,                      Y,                      Z,                     VX,                     VY,                     VZ,                     LT,                     RG,                     RR,
**************************************************************************************************************************************************************************************************************************************************************************
$$SOE
2464518.500000000, A.D. 2035-Jul-10 00:00:00.0000, -4.193307911149387E+00,  8.623598400144817E-01,  4.971066979139107E-01, -4.684834397868201E-03, -5.696084544859245E-03,  8.083297263465515E-04,  2.489148620437956E-02,  4.309827235573221E+00,  3.511673178534856E-03,
2464532.500000000, A.D. 2035-Jul-24 00:00:00.0000, -4.257386454655625E+00,  7.823147157807082E-01,  5.082438995978050E-01, -4.469902066627820E-03, -5.738019726121513E-03,  7.827477858205839E-04,  2.517203038617287E-02,  4.358401954878717E+00,  3.427630168726907E-03,
2464546.500000000, A.D. 2035-Aug-07 00:00:00.0000, -4.318483348860614E+00,  7.017201112712677E-01,  5.190249957604759E-01, -4.258865309093066E-03, -5.774635412801768E-03,  7.574571318648195E-04,  2.544579364494749E-02,  4.405802593758952E+00,  3.343953794811623E-03,
2464560.500000000, A.D. 2035-Aug-21 00:00:00.0000, -4.376652310819699E+00,  6.206482809950103E-01,  5.294540426444964E-01, -4.051605826386988E-03, -5.806245117167159E-03,  7.324543146244585E-04,  2.571280695294144E-02,  4.452034514890700E+00,  3.260674372797043E-03,
2464574.500000000, A.D. 2035-Sep-04 00:00:00.0000, -4.431945375830453E+00,  5.391672604724057E-01,  5.395350385420956E-01, -3.848003005362662E-03, -5.833137079825582E-03,  7.077347645016733E-04,  2.597310326417604E-02,  4.497103424085872E+00,  3.177812236519129E-03,
2464588.500000000, A.D. 2035-Sep-18 00:00:00.0000, -4.484412911253471E+00,  4.573412209733168E-01,  5.492719147617033E-01, -3.647939518251011E-03, -5.855575947047673E-03,  6.832934935442732E-04,  2.622671700198705E-02,  4.541015281560301E+00,  3.095383713993003E-03,
2464602.500000000, A.D. 2035-Oct-02 00:00:00.0000, -4.534103666876899E+00,  3.752307636335236E-01,  5.586685292180820E-01, -3.451301152932293E-03, -5.873808033612096E-03,  6.591249285589276E-04,  2.647368376124656E-02,  4.583776250375037E+00,  3.013401034222960E-03,
2464616.500000000, A.D. 2035-Oct-16 00:00:00.0000, -4.581064773385442E+00,  2.928931559451898E-01,  5.677286541421928E-01, -3.257969207186195E-03, -5.888061428701370E-03,  6.352224394340481E-04,  2.671403973850184E-02,  4.625392597767961E+00,  2.931865515746390E-03,
2464630.500000000, A.D. 2035-Oct-30 00:00:00.0000, -4.625341708370558E+00,  2.103826895097594E-01,  5.764559737224300E-01, -3.067831449385166E-03, -5.898533945204575E-03,  6.115805237561743E-04,  2.694782107653800E-02,  4.665870581668325E+00,  2.850779578011971E-03,
2464644.500000000, A.D. 2035-Nov-13 00:00:00.0000, -4.666978495383323E+00,  1.277509529222642E-01,  5.848540986630660E-01, -2.880788058652759E-03, -5.905417153039961E-03,  5.881935487941507E-04,  2.717506450951150E-02,  4.705216562398156E+00,  2.770151062284227E-03,
2464658.500000000, A.D. 2035-Nov-27 00:00:00.0000, -4.706017728849659E+00,  4.504691809333577E-02,  5.929265516017942E-01, -2.696735084015982E-03, -5.908890782892472E-03,  5.650548281715162E-04,  2.739580698936654E-02,  4.743436937988257E+00,  2.689978168533614E-03,
2464672.500000000, A.D. 2035-Dec-11 00:00:00.0000, -4.742500556158920E+00, -3.768284366877751E-02,  6.006767609720445E-01, -2.515570473958977E-03, -5.909118564061136E-03,  5.421576324008746E-04,  2.761008516942147E-02,  4.780538054763971E+00,  2.610256023588985E-03,
2464686.500000000, A.D. 2035-Dec-25 00:00:00.0000, -4.776466721426119E+00, -1.203939619451711E-01,  6.081080607323810E-01, -2.337195746445361E-03, -5.906251872689536E-03,  5.194951485004757E-04,  2.781793525714800E-02,  4.816526181854692E+00,  2.530978446830417E-03,
2464700.500000000, A.D. 2036-Jan-08 00:00:00.0000, -4.807954592466427E+00, -2.030441205163440E-01,  6.152236856208667E-01, -2.161511029890153E-03, -5.900432321680074E-03,  4.970599092148049E-04,  2.801939278903662E-02,  4.851407472213006E+00,  2.452133338975928E-03,
2464714.500000000, A.D. 2036-Jan-22 00:00:00.0000, -4.837001112673570E+00, -2.855928382272256E-01,  6.220267667393865E-01, -1.988416618468835E-03, -5.891778077099632E-03,  4.748451439380526E-04,  2.821449198137329E-02,  4.885187850205178E+00,  2.373703891107248E-03,
2464728.500000000, A.D. 2036-Feb-05 00:00:00.0000, -4.863641966889293E+00, -3.680011939781953E-01,  6.285203525674765E-01, -1.817830985984594E-03, -5.880399506415580E-03,  4.528452396201252E-04,  2.840326627992277E-02,  4.917873106785866E+00,  2.295686634464493E-03,
2464742.500000000, A.D. 2036-Feb-19 00:00:00.0000, -4.887911700939849E+00, -4.502318184658295E-01,  6.347074051707475E-01, -1.649671322636732E-03, -5.866404988686269E-03,  4.310535715369338E-04,  2.858574870394332E-02,  4.949468959062409E+00,  2.218072874325829E-03,
2464756.500000000, A.D. 2036-Mar-04 00:00:00.0000, -4.909843706883172E+00, -5.322487820923423E-01,  6.405907938789179E-01, -1.483856756057350E-03, -5.849892020048362E-03,  4.094636209963433E-04,  2.876197143793590E-02,  4.979980979608404E+00,  2.140851808145589E-03,
2464770.500000000, A.D. 2036-Mar-18 00:00:00.0000, -4.929470279343382E+00, -6.140174620582196E-01,  6.461732985646363E-01, -1.320311450175663E-03, -5.830950460178543E-03,  3.880690959405936E-04,  2.893196583807548E-02,  5.009414597577250E+00,  2.064013896725427E-03,
2464784.500000000, A.D. 2036-Apr-01 00:00:00.0000, -4.946822675485186E+00, -6.955044658718430E-01,  6.514576100989437E-01, -1.158961716491586E-03, -5.809666682898620E-03,  3.668634318284369E-04,  2.909576249950407E-02,  5.037775110353570E+00,  1.987548665341588E-03,
2464798.500000000, A.D. 2036-Apr-15 00:00:00.0000, -4.961931086398483E+00, -7.766775455633239E-01,  6.564463248956725E-01, -9.997300797055667E-04, -5.786114316598950E-03,  3.458401053394858E-04,  2.925339083126496E-02,  5.065067609955363E+00,  1.911437919088413E-03,
2464812.500000000, A.D. 2036-Apr-29 00:00:00.0000, -4.974824720933195E+00, -8.575053728333949E-01,  6.611419624681451E-01, -8.425559634765357E-04, -5.760356525205811E-03,  3.249944330256664E-04,  2.940487916607276E-02,  5.091297002040091E+00,  1.835676127157679E-03,
2464826.500000000, A.D. 2036-May-13 00:00:00.0000, -4.985531981440580E+00, -9.379575652723395E-01,  6.655469719997551E-01, -6.873806847879617E-04, -5.732463542164309E-03,  3.043208313247588E-04,  2.955025557797240E-02,  5.116468147477955E+00,  1.760258342798418E-03,
2464840.500000000, A.D. 2036-May-27 00:00:00.0000, -4.994080422405052E+00, -1.018004690433404E+00,  6.696637216302544E-01, -5.341431165299936E-04, -5.702500057372165E-03,  2.838134969721021E-04,  2.968954749306946E-02,  5.140585794951925E+00,  1.685174693079649E-03,
